NORAD_CAT_ID,OBJECT_NAME,OBJECT_TYPE,EPOCH,MEAN_MOTION,ECCENTRICITY,INCLINATION,RA_OF_ASC_NODE,ARG_OF_PERICENTER,MEAN_ANOMALY,BSTAR,MEAN_MOTION_DOT,MEAN_MOTION_DDOT,TLE_LINE0,TLE_LINE1,TLE_LINE2,SEMIMAJOR_AXIS,PERIOD,APOGEE,PERIGEE,DECAYED
52452.0,STARLINK-3909,PAYLOAD,2023-02-21 05:35:28,15.08840789,0.0001561,53.2175,23.1388,78.3507,281.7661,-5.4139e-05,-1.15e-05,0.0,0 STARLINK-3909,1 52452U 22049B   23052.23296320 -.00001150  00000-0 -54139-4 0  9999,2 52452  53.2175  23.1388 0001561  78.3507 281.7661 15.08840789 44325,6917.878,95.438,540.823,538.663,0.0
52452.0,STARLINK-3909,PAYLOAD,2023-02-21 07:10:51,15.08841702,0.0001596,53.2175,22.8405,77.1073,283.0097,-3.0597e-05,-7.75e-06,0.0,0 STARLINK-3909,1 52452U 22049B   23052.29920291 -.00000775  00000-0 -30597-4 0  9990,2 52452  53.2175  22.8405 0001596  77.1073 283.0097 15.08841702 44171,6917.875,95.437,540.844,538.636,0.0
52452.0,STARLINK-3909,PAYLOAD,2023-02-21 15:07:46,15.08842897,0.0001268,53.2169,21.3551,85.908,274.2057,3.6466e-05,2.93e-06,0.0,0 STARLINK-3909,1 52452U 22049B   23052.63040158  .00000293  00000-0  36466-4 0  9997,2 52452  53.2169  21.3551 0001268  85.9080 274.2057 15.08842897 44221,6917.872,95.437,540.614,538.859,0.0
52452.0,STARLINK-3909,PAYLOAD,2023-02-22 07:01:37,15.08856238,0.0001168,53.2166,18.3808,93.5674,266.5451,0.00034793,5.256e-05,0.0,0 STARLINK-3909,1 52452U 22049B   23053.29279581  .00005256  00000-0  34793-3 0  9998,2 52452  53.2166  18.3808 0001168  93.5674 266.5451 15.08856238 44486,6917.831,95.437,540.504,538.888,0.0
52452.0,STARLINK-3909,PAYLOAD,2023-02-22 21:20:06,15.08831149,0.0001329,53.2179,15.7037,89.4043,270.7101,4.0966e-05,3.64e-06,0.0,0 STARLINK-3909,1 52452U 22049B   23053.88896963  .00000364  00000-0  40966-4 0  9997,2 52452  53.2179  15.7037 0001329  89.4043 270.7101 15.08831149 44414,6917.907,95.438,540.692,538.853,0.0
52452.0,STARLINK-3909,PAYLOAD,2023-02-23 06:52:25,15.08838983,0.0001122,53.2166,13.9195,95.1337,264.9783,0.00021451,3.128e-05,0.0,0 STARLINK-3909,1 52452U 22049B   23054.28640833  .00003128  00000-0  21451-3 0  9993,2 52452  53.2166  13.9195 0001122  95.1337 264.9783 15.08838983 44634,6917.883,95.438,540.525,538.972,0.0
52452.0,STARLINK-3909,PAYLOAD,2023-02-24 06:43:12,15.08872191,9.36e-05,53.217,9.4597,74.3664,285.7432,0.0013761,0.000217,0.0,0 STARLINK-3909,1 52452U 22049B   23055.28000252  .00021700  00000-0  13761-2 0  9999,2 52452  53.2170   9.4597 0000936  74.3664 285.7432 15.08872191 44786,6917.782,95.436,540.295,538.999,0.0
52452.0,STARLINK-3909,PAYLOAD,2023-02-25 06:33:59,15.08843187,8.15e-05,53.2173,4.9985,95.4725,264.636,0.00028697,4.283e-05,0.0,0 STARLINK-3909,1 52452U 22049B   23056.27360547  .00004283  00000-0  28697-3 0  9997,2 52452  53.2173   4.9985 0000815  95.4725 264.6360 15.08843187 44934,6917.871,95.437,540.299,539.172,0.0
52452.0,STARLINK-3909,PAYLOAD,2023-02-26 03:14:00,15.08853303,9.12e-05,53.2159,1.134,91.4521,268.6575,0.00075189,0.00011703,0.0,0 STARLINK-3909,1 52452U 22049B   23057.13472298  .00011703  00000-0  75189-3 0  9993,2 52452  53.2159   1.1340 0000912  91.4521 268.6575 15.08853303 44900,6917.84,95.437,540.336,539.074,0.0
52452.0,STARLINK-3909,PAYLOAD,2023-02-27 03:04:46,15.08858917,9.86e-05,53.2161,356.6734,91.113,268.9975,0.00051156,7.867e-05,0.0,0 STARLINK-3909,1 52452U 22049B   23058.12831925  .00007867  00000-0  51156-3 0  9993,2 52452  53.2161 356.6734 0000986  91.1130 268.9975 15.08858917 45210,6917.823,95.436,540.37,539.005,0.0
52452.0,STARLINK-3909,PAYLOAD,2023-02-27 06:15:32,15.08875561,9.8e-05,53.2166,356.0782,87.4071,272.7033,0.0010822,0.00016994,0.0,0 STARLINK-3909,1 52452U 22049B   23058.26079526  .00016994  00000-0  10822-2 0  9994,2 52452  53.2166 356.0782 0000980  87.4071 272.7033 15.08875561 45232,6917.772,95.435,540.315,538.959,0.0
52452.0,STARLINK-3909,PAYLOAD,2023-02-28 04:30:54,15.08885671,0.0001343,53.2149,351.9134,74.7494,285.3647,0.00083901,0.00013107,0.0,0 STARLINK-3909,1 52452U 22049B   23059.18813585  .00013107  00000-0  83901-3 0  9999,2 52452  53.2149 351.9134 0001343  74.7494 285.3647 15.08885671 45379,6917.741,95.435,540.535,538.677,0.0
52452.0,STARLINK-3909,PAYLOAD,2023-02-28 23:35:34,15.08790058,0.0001546,53.2146,348.3471,61.8668,298.2481,0.00047704,7.302e-05,0.0,0 STARLINK-3909,1 52452U 22049B   23059.98304297  .00007302  00000-0  47704-3 0  9993,2 52452  53.2146 348.3471 0001546  61.8668 298.2481 15.08790058 45491,6918.033,95.441,540.968,538.829,0.0
52452.0,STARLINK-3909,PAYLOAD,2023-03-01 07:32:30,15.0881721,0.0001474,53.2156,346.8614,96.2571,263.859,0.001241,0.00019505,0.0,0 STARLINK-3909,1 52452U 22049B   23060.31424660  .00019505  00000-0  12410-2 0  9992,2 52452  53.2156 346.8614 0001474  96.2571 263.8590 15.08817210 45544,6917.95,95.439,540.835,538.795,0.0
52452.0,STARLINK-3909,PAYLOAD,2023-03-02 01:01:46,15.08831602,0.0001558,53.2166,343.5886,85.6523,274.4647,0.00073405,0.00011411,0.0,0 STARLINK-3909,1 52452U 22049B   23061.04289416  .00011411  00000-0  73405-3 0  9991,2 52452  53.2166 343.5886 0001558  85.6523 274.4647 15.08831602 45656,6917.906,95.438,540.849,538.693,0.0
52452.0,STARLINK-3909,PAYLOAD,2023-03-02 18:31:00,15.0884817,0.0001547,53.2161,340.3181,102.8335,257.283,0.00089241,0.00013946,0.0,0 STARLINK-3909,1 52452U 22049B   23061.77153360  .00013946  00000-0  89241-3 0  9999,2 52452  53.2161 340.3181 0001547 102.8335 257.2830 15.08848170 45601,6917.855,95.437,540.791,538.65,0.0
52452.0,STARLINK-3909,PAYLOAD,2023-03-03 04:03:18,15.08871424,0.00016,53.2158,338.5323,105.5117,254.6052,0.0014779,0.00023331,0.0,0 STARLINK-3909,1 52452U 22049B   23062.16896717  .00023331  00000-0  14779-2 0  9995,2 52452  53.2158 338.5323 0001600 105.5117 254.6052 15.08871424 45821,6917.784,95.436,540.756,538.542,0.0
52452.0,STARLINK-3909,PAYLOAD,2023-03-03 21:32:32,15.08873895,0.0001059,53.2164,335.2617,83.6908,276.4205,0.0014229,0.00022451,0.0,0 STARLINK-3909,1 52452U 22049B   23062.89760160  .00022451  00000-0  14229-2 0  9999,2 52452  53.2164 335.2617 0001059  83.6908 276.4205 15.08873895 45938,6917.777,95.435,540.374,538.909,0.0
52452.0,STARLINK-3909,PAYLOAD,2023-03-04 03:54:04,15.08897673,0.0001082,53.2166,334.0727,80.508,279.6035,0.0022623,0.00035957,0.0,0 STARLINK-3909,1 52452U 22049B   23063.16255250  .00035957  00000-0  22623-2 0  9991,2 52452  53.2166 334.0727 0001082  80.5080 279.6035 15.08897673 45972,6917.704,95.434,540.318,538.821,0.0
52452.0,STARLINK-3909,PAYLOAD,2023-03-04 18:12:33,15.08841344,0.0002061,53.2161,331.3959,84.4901,275.6326,0.0017267,0.00027301,0.0,0 STARLINK-3909,1 52452U 22049B   23063.75872317  .00027301  00000-0  17267-2 0  9997,2 52452  53.2161 331.3959 0002061  84.4901 275.6326 15.08841344 46061,6917.876,95.437,541.167,538.316,0.0
52452.0,STARLINK-3909,PAYLOAD,2023-03-05 03:44:52,15.08836143,0.0001556,53.2172,329.6123,61.2129,298.9019,0.00028462,4.244e-05,0.0,0 STARLINK-3909,1 52452U 22049B   23064.15616620  .00004244  00000-0  28462-3 0  9996,2 52452  53.2172 329.6123 0001556  61.2129 298.9019 15.08836143 46124,6917.892,95.438,540.834,538.681,0.0
52452.0,STARLINK-3909,PAYLOAD,2023-03-05 21:14:07,15.08837017,0.0001519,53.2157,326.3406,52.6769,307.4362,0.00056717,8.749e-05,0.0,0 STARLINK-3909,1 52452U 22049B   23064.88481251  .00008749  00000-0  56717-3 0  9994,2 52452  53.2157 326.3406 0001519  52.6769 307.4362 15.08837017 46238,6917.89,95.438,540.805,538.704,0.0
52452.0,STARLINK-3909,PAYLOAD,2023-03-06 02:00:16,15.08869278,0.0001214,53.216,325.4488,70.4365,289.6758,0.0020052,0.00031795,0.0,0 STARLINK-3909,1 52452U 22049B   23065.08352894  .00031795  00000-0  20052-2 0  9996,2 52452  53.2160 325.4488 0001214  70.4365 289.6758 15.08869278 46261,6917.791,95.436,540.496,538.816,0.0
52452.0,STARLINK-3909,PAYLOAD,2023-03-07 05:01:51,15.0883015,0.0001713,53.2154,320.3928,73.8895,286.2286,0.00070414,0.00010933,0.0,0 STARLINK-3909,1 52452U 22049B   23066.20962914  .00010933  00000-0  70414-3 0  9990,2 52452  53.2154 320.3928 0001713  73.8895 286.2286 15.08830150 46431,6917.91,95.438,540.961,538.59,0.0
52452.0,STARLINK-3909,PAYLOAD,2023-03-07 16:09:33,15.08848658,0.0001648,53.2162,318.3125,81.2217,278.8961,0.0012618,0.00019855,0.0,0 STARLINK-3909,1 52452U 22049B   23066.67331015  .00019855  00000-0  12618-2 0  9996,2 52452  53.2162 318.3125 0001648  81.2217 278.8961 15.08848658 46343,6917.854,95.437,540.859,538.579,0.0
52452.0,STARLINK-3909,PAYLOAD,2023-03-08 03:17:14,15.08910239,0.0001601,53.214,316.2321,88.823,271.2946,0.0029579,0.00047194,0.0,0 STARLINK-3909,1 52452U 22049B   23067.13697279  .00047194  00000-0  29579-2 0  9996,2 52452  53.2140 316.2321 0001601  88.8230 271.2946 15.08910239 46571,6917.666,95.433,540.638,538.423,0.0
52452.0,STARLINK-3909,PAYLOAD,2023-03-08 22:21:52,15.08881451,0.0003031,53.2145,312.6633,84.6445,275.4893,0.0033165,0.00052954,0.0,0 STARLINK-3909,1 52452U 22049B   23067.93185942  .00052954  00000-0  33165-2 0  9999,2 52452  53.2145 312.6633 0003031  84.6445 275.4893 15.08881451 46539,6917.754,95.435,541.715,537.522,0.0
52452.0,STARLINK-3909,PAYLOAD,2023-03-08 23:57:15,15.08874833,0.0001277,53.2156,312.3664,69.4743,290.6386,0.003767,0.00060234,0.0,0 STARLINK-3909,1 52452U 22049B   23067.99809942  .00060234  00000-0  37670-2 0  9993,2 52452  53.2156 312.3664 0001277  69.4743 290.6386 15.08874833 46705,6917.774,95.435,540.522,538.756,0.0
52452.0,STARLINK-3909,PAYLOAD,2023-03-09 01:32:38,15.08857652,0.0001395,53.2155,312.069,70.1485,289.9658,0.0022666,0.00035987,0.0,0 STARLINK-3909,1 52452U 22049B   23068.06433908  .00035987  00000-0  22666-2 0  9993,2 52452  53.2155 312.0690 0001395  70.1485 289.9658 15.08857652 46717,6917.826,95.436,540.656,538.726,0.0
52452.0,STARLINK-3909,PAYLOAD,2023-03-09 22:12:39,15.08868906,0.0001399,53.215,308.2014,76.719,283.3959,0.0020707,0.00032847,0.0,0 STARLINK-3909,1 52452U 22049B   23068.92545836  .00032847  00000-0  20707-2 0  9998,2 52452  53.2150 308.2014 0001399  76.7190 283.3959 15.08868906 46680,6917.792,95.436,540.625,538.689,0.0
